{
"type": "FeatureCollection",
"name": "aus_states",
"crs": { "type": "name", "properties": { "name": "urn:ogc:def:crs:OGC:1.3:CRS84" } },
"features": [
{ "type": "Feature", "properties": { "state": "WA", "name": "Western Australia" }, "geometry": { "type": "MultiPolygon", "coordinates": [ [ [ [ 128.131, -15.038 ], [ 128.195, -15.127 ], [ 128.187, -15.19 ], [ 128.126, -15.135 ], [ 128.131, -15.038 ] ] ], [ [ [ 128.385, -14.892 ], [ 128.441, -15.039 ], [ 128.354, -14.869 ], [ 128.385, -14.892 ] ] ], [ [ [ 126.515, -13.905 ], [ 126.554, -13.875 ], [ 126.611, -13.901 ], [ 126.515, -13.905 ] ] ], [ [ [ 129.0, -31.689 ], [ 128.219, -32.018 ], [ 127.289, -32.273 ], [ 126.678, -32.317 ], [ 126.186, -32.233 ], [ 125.977, -32.284 ], [ 125.537, -32.548 ], [ 125.0, -32.737 ], [ 124.834, -32.868 ], [ 124.357, -32.953 ], [ 124.201, -33.038 ], [ 124.095, -33.156 ], [ 123.952, -33.567 ], [ 123.527, -33.939 ], [ 123.383, -33.891 ], [ 123.155, -34.009 ], [ 123.023, -33.861 ], [ 122.607, -33.895 ], [ 122.56, -33.959 ], [ 122.35, -33.915 ], [ 122.258, -34.022 ], [ 122.095, -34.019 ], [ 122.006, -33.821 ], [ 121.794, -33.897 ], [ 121.334, -33.815 ], [ 120.562, -33.893 ], [ 120.394, -33.974 ], [ 120.002, -33.926 ], [ 119.572, -34.142 ], [ 119.469, -34.313 ], [ 119.559, -34.384 ], [ 119.408, -34.37 ], [ 119.364, -34.495 ], [ 119.301, -34.446 ], [ 119.23, -34.532 ], [ 118.84, -34.453 ], [ 118.888, -34.5 ], [ 118.727, -34.558 ], [ 118.725, -34.636 ], [ 118.443, -34.74 ], [ 118.398, -34.901 ], [ 118.161, -34.945 ], [ 118.199, -35.017 ], [ 117.835, -35.031 ], [ 118.001, -35.088 ], [ 117.933, -35.12 ], [ 117.684, -35.046 ], [ 117.62, -35.138 ], [ 117.192, -35.008 ], [ 117.14, -35.063 ], [ 116.736, -35.008 ], [ 116.638, -35.05 ], [ 116.395, -34.949 ], [ 116.504, -34.939 ], [ 116.388, -34.858 ], [ 116.376, -34.917 ], [ 115.979, -34.836 ], [ 115.916, -34.702 ], [ 115.508, -34.387 ], [ 115.263, -34.299 ], [ 115.119, -34.363 ], [ 115.018, -34.262 ], [ 114.971, -34.083 ], [ 114.989, -33.521 ], [ 115.195, -33.645 ], [ 115.367, -33.631 ], [ 115.517, -33.512 ], [ 115.626, -33.308 ], [ 115.702, -33.297 ], [ 115.601, -32.662 ], [ 115.701, -32.513 ], [ 115.64, -32.657 ], [ 115.714, -32.78 ], [ 115.659, -32.629 ], [ 115.769, -32.602 ], [ 115.715, -32.537 ], [ 115.736, -32.333 ], [ 115.674, -32.273 ], [ 115.757, -32.186 ], [ 115.701, -31.691 ], [ 115.181, -30.827 ], [ 114.975, -30.214 ], [ 114.982, -29.502 ], [ 114.93, -29.328 ], [ 114.832, -29.092 ], [ 114.604, -28.839 ], [ 114.531, -28.522 ], [ 114.149, -28.069 ], [ 114.097, -27.819 ], [ 114.144, -27.688 ], [ 114.013, -27.315 ], [ 113.591, -26.676 ], [ 113.313, -26.416 ], [ 113.157, -26.152 ], [ 113.276, -26.235 ], [ 113.306, -25.997 ], [ 113.328, -26.275 ], [ 113.384, -26.383 ], [ 113.363, -26.013 ], [ 113.496, -26.327 ], [ 113.479, -26.473 ], [ 113.53, -26.267 ], [ 113.566, -26.565 ], [ 113.625, -26.44 ], [ 113.67, -26.653 ], [ 113.812, -26.599 ], [ 113.887, -26.493 ], [ 113.885, -26.343 ], [ 113.577, -26.089 ], [ 113.558, -25.941 ], [ 113.414, -25.702 ], [ 113.515, -25.509 ], [ 113.521, -25.601 ], [ 113.757, -25.885 ], [ 113.728, -26.197 ], [ 113.795, -26.207 ], [ 113.848, -26.122 ], [ 113.855, -25.944 ], [ 113.91, -25.976 ], [ 113.906, -26.119 ], [ 114.022, -26.391 ], [ 114.104, -26.448 ], [ 114.234, -26.317 ], [ 114.187, -25.979 ], [ 114.269, -25.99 ], [ 114.259, -25.842 ], [ 114.155, -25.79 ], [ 113.802, -25.172 ], [ 113.692, -25.105 ], [ 113.604, -24.728 ], [ 113.391, -24.414 ], [ 113.46, -23.91 ], [ 113.604, -23.625 ], [ 113.769, -23.458 ], [ 113.748, -23.162 ], [ 113.807, -22.931 ], [ 113.76, -22.789 ], [ 113.659, -22.728 ], [ 113.647, -22.578 ], [ 114.036, -21.838 ], [ 114.172, -21.803 ], [ 114.077, -22.175 ], [ 114.11, -22.331 ], [ 114.171, -22.317 ], [ 114.122, -22.504 ], [ 114.18, -22.522 ], [ 114.287, -22.443 ], [ 114.337, -22.494 ], [ 114.498, -22.164 ], [ 114.496, -22.004 ], [ 114.55, -22.042 ], [ 114.647, -21.843 ], [ 115.479, -21.501 ], [ 115.626, -21.322 ], [ 115.819, -21.226 ], [ 115.937, -21.059 ], [ 116.152, -20.97 ], [ 116.196, -20.847 ], [ 116.452, -20.815 ], [ 116.699, -20.659 ], [ 116.791, -20.535 ], [ 116.845, -20.539 ], [ 116.784, -20.657 ], [ 116.855, -20.712 ], [ 117.16, -20.596 ], [ 117.198, -20.684 ], [ 117.438, -20.723 ], [ 117.839, -20.617 ], [ 118.151, -20.356 ], [ 118.806, -20.281 ], [ 119.095, -19.967 ], [ 119.463, -20.0 ], [ 119.59, -20.066 ], [ 119.734, -19.963 ], [ 120.238, -19.907 ], [ 120.954, -19.634 ], [ 121.194, -19.472 ], [ 121.416, -19.222 ], [ 121.643, -18.81 ], [ 121.613, -18.712 ], [ 121.769, -18.657 ], [ 121.732, -18.581 ], [ 121.811, -18.463 ], [ 121.91, -18.464 ], [ 122.347, -18.121 ], [ 122.344, -17.983 ], [ 122.17, -17.978 ], [ 122.208, -17.911 ], [ 122.143, -17.564 ], [ 122.172, -17.261 ], [ 122.276, -17.089 ], [ 122.478, -16.971 ], [ 122.473, -16.92 ], [ 122.595, -16.971 ], [ 122.526, -16.862 ], [ 122.582, -16.78 ], [ 122.821, -16.78 ], [ 122.746, -16.703 ], [ 122.759, -16.604 ], [ 122.886, -16.512 ], [ 122.916, -16.416 ], [ 123.02, -16.383 ], [ 123.054, -16.471 ], [ 122.99, -16.473 ], [ 122.96, -16.58 ], [ 123.043, -16.692 ], [ 123.132, -16.686 ], [ 123.094, -16.769 ], [ 123.151, -16.808 ], [ 123.143, -16.914 ], [ 123.26, -17.015 ], [ 123.571, -17.595 ], [ 123.568, -17.362 ], [ 123.644, -17.185 ], [ 123.58, -17.094 ], [ 123.595, -16.985 ], [ 123.913, -17.216 ], [ 123.795, -17.0 ], [ 123.863, -17.026 ], [ 123.842, -16.947 ], [ 123.953, -16.829 ], [ 123.792, -16.891 ], [ 123.708, -16.742 ], [ 123.51, -16.654 ], [ 123.609, -16.546 ], [ 123.513, -16.567 ], [ 123.424, -16.491 ], [ 123.643, -16.526 ], [ 123.588, -16.505 ], [ 123.654, -16.484 ], [ 123.506, -16.408 ], [ 123.712, -16.43 ], [ 123.632, -16.365 ], [ 123.712, -16.381 ], [ 123.712, -16.334 ], [ 123.54, -16.265 ], [ 123.57, -16.177 ], [ 123.724, -16.136 ], [ 123.807, -16.191 ], [ 123.767, -16.204 ], [ 123.813, -16.246 ], [ 123.733, -16.259 ], [ 123.863, -16.327 ], [ 123.863, -16.43 ], [ 123.892, -16.339 ], [ 123.993, -16.378 ], [ 123.986, -16.279 ], [ 123.911, -16.217 ], [ 124.126, -16.272 ], [ 124.223, -16.396 ], [ 124.342, -16.408 ], [ 124.386, -16.351 ], [ 124.879, -16.421 ], [ 124.697, -16.344 ], [ 124.402, -16.329 ], [ 124.434, -16.058 ], [ 124.52, -16.176 ], [ 124.596, -16.115 ], [ 124.61, -15.899 ], [ 124.733, -15.807 ], [ 124.61, -15.807 ], [ 124.486, -15.998 ], [ 124.438, -15.826 ], [ 124.404, -15.875 ], [ 124.376, -15.676 ], [ 124.428, -15.622 ], [ 124.376, -15.525 ], [ 124.473, -15.469 ], [ 124.63, -15.505 ], [ 124.64, -15.416 ], [ 124.683, -15.474 ], [ 124.733, -15.358 ], [ 124.67, -15.352 ], [ 124.664, -15.25 ], [ 124.757, -15.285 ], [ 124.74, -15.333 ], [ 124.798, -15.292 ], [ 124.822, -15.354 ], [ 124.92, -15.361 ], [ 124.993, -15.422 ], [ 124.98, -15.478 ], [ 125.05, -15.498 ], [ 125.062, -15.45 ], [ 125.185, -15.518 ], [ 125.073, -15.419 ], [ 125.144, -15.313 ], [ 125.038, -15.281 ], [ 124.918, -15.34 ], [ 124.885, -15.297 ], [ 125.055, -15.162 ], [ 124.87, -15.25 ], [ 124.834, -15.165 ], [ 124.884, -15.105 ], [ 125.021, -15.1 ], [ 125.0, -14.97 ], [ 125.082, -14.977 ], [ 125.062, -15.032 ], [ 125.124, -15.039 ], [ 125.165, -15.162 ], [ 125.146, -15.028 ], [ 125.165, -15.011 ], [ 125.288, -15.141 ], [ 125.432, -15.138 ], [ 125.366, -15.051 ], [ 125.43, -15.009 ], [ 125.187, -14.945 ], [ 125.309, -14.885 ], [ 125.202, -14.845 ], [ 125.136, -14.736 ], [ 125.301, -14.635 ], [ 125.233, -14.614 ], [ 125.348, -14.499 ], [ 125.343, -14.607 ], [ 125.391, -14.539 ], [ 125.439, -14.639 ], [ 125.494, -14.491 ], [ 125.589, -14.545 ], [ 125.586, -14.246 ], [ 125.733, -14.271 ], [ 125.658, -14.333 ], [ 125.684, -14.507 ], [ 125.638, -14.635 ], [ 125.733, -14.399 ], [ 125.733, -14.47 ], [ 125.85, -14.458 ], [ 125.833, -14.585 ], [ 125.918, -14.638 ], [ 125.925, -14.519 ], [ 126.041, -14.509 ], [ 125.98, -14.381 ], [ 126.061, -14.35 ], [ 126.063, -14.236 ], [ 126.145, -14.195 ], [ 126.134, -14.095 ], [ 125.992, -14.071 ], [ 125.98, -13.99 ], [ 126.096, -14.025 ], [ 126.017, -13.922 ], [ 126.152, -13.922 ], [ 126.111, -14.018 ], [ 126.22, -13.956 ], [ 126.166, -14.085 ], [ 126.212, -14.081 ], [ 126.191, -14.16 ], [ 126.289, -14.23 ], [ 126.345, -14.185 ], [ 126.294, -14.136 ], [ 126.329, -14.059 ], [ 126.432, -13.97 ], [ 126.569, -13.942 ], [ 126.453, -14.078 ], [ 126.528, -14.073 ], [ 126.494, -14.113 ], [ 126.604, -14.23 ], [ 126.652, -14.066 ], [ 126.693, -14.121 ], [ 126.734, -14.073 ], [ 126.707, -13.984 ], [ 126.857, -13.949 ], [ 126.747, -13.792 ], [ 126.814, -13.768 ], [ 126.843, -13.819 ], [ 126.845, -13.754 ], [ 126.953, -13.724 ], [ 127.13, -13.968 ], [ 127.165, -13.881 ], [ 127.197, -13.949 ], [ 127.237, -13.892 ], [ 127.333, -13.961 ], [ 127.33, -13.901 ], [ 127.418, -13.942 ], [ 127.45, -14.057 ], [ 127.666, -14.178 ], [ 127.947, -14.573 ], [ 128.005, -14.561 ], [ 128.228, -14.71 ], [ 128.191, -14.83 ], [ 128.118, -14.854 ], [ 128.024, -15.497 ], [ 128.101, -15.425 ], [ 128.125, -15.182 ], [ 128.289, -15.402 ], [ 128.196, -15.057 ], [ 128.313, -14.905 ], [ 128.35, -15.037 ], [ 128.365, -14.984 ], [ 128.418, -15.04 ], [ 128.45, -15.043 ], [ 128.396, -14.796 ], [ 128.532, -14.753 ], [ 129.0, -14.868 ], [ 129.0, -31.689 ] ] ], [ [ [ 113.217, -26.068 ], [ 113.207, -26.14 ], [ 112.954, -25.773 ], [ 112.959, -25.483 ], [ 113.138, -25.886 ], [ 113.116, -25.963 ], [ 113.217, -26.068 ] ] ], [ [ [ 113.069, -25.276 ], [ 113.079, -25.062 ], [ 113.118, -25.009 ], [ 113.069, -25.276 ] ] ], [ [ [ 113.135, -24.892 ], [ 113.118, -24.995 ], [ 113.152, -24.756 ], [ 113.135, -24.892 ] ] ], [ [ [ 115.465, -20.73 ], [ 115.408, -20.854 ], [ 115.307, -20.871 ], [ 115.429, -20.669 ], [ 115.465, -20.73 ] ] ], [ [ [ 124.408, -15.272 ], [ 124.432, -15.309 ], [ 124.336, -15.3 ], [ 124.408, -15.272 ] ] ], [ [ [ 124.569, -15.244 ], [ 124.65, -15.395 ], [ 124.531, -15.44 ], [ 124.583, -15.374 ], [ 124.459, -15.361 ], [ 124.569, -15.244 ] ] ], [ [ [ 124.925, -14.936 ], [ 124.927, -15.029 ], [ 124.864, -14.973 ], [ 124.925, -14.936 ] ] ], [ [ [ 125.153, -14.444 ], [ 125.205, -14.593 ], [ 125.137, -14.648 ], [ 125.096, -14.549 ], [ 125.137, -14.559 ], [ 125.153, -14.444 ] ] ], [ [ [ 115.66, -32.15 ], [ 115.678, -32.216 ], [ 115.681, -32.239 ], [ 115.66, -32.233 ], [ 115.66, -32.15 ] ] ], [ [ [ 115.44, -32.022 ], [ 115.525, -31.994 ], [ 115.552, -32.006 ], [ 115.44, -32.022 ] ] ], [ [ [ 113.685, -28.486 ], [ 113.72, -28.428 ], [ 113.75, -28.428 ], [ 113.685, -28.486 ] ] ] ] } },
{ "type": "Feature", "properties": { "state": "NT", "name": "Northern Territory" }, "geometry": { "type": "MultiPolygon", "coordinates": [ [ [ [ 129.616, -14.825 ], [ 129.627, -14.875 ], [ 129.583, -14.804 ], [ 129.616, -14.825 ] ] ], [ [ [ 129.502, -14.799 ], [ 129.587, -14.883 ], [ 129.591, -14.964 ], [ 129.502, -14.799 ] ] ], [ [ [ 134.854, -12.038 ], [ 134.926, -12.068 ], [ 134.908, -12.118 ], [ 134.854, -12.038 ] ] ], [ [ [ 134.956, -12.016 ], [ 134.949, -12.055 ], [ 134.908, -12.023 ], [ 134.956, -12.016 ] ] ], [ [ [ 135.122, -11.93 ], [ 135.058, -11.953 ], [ 135.046, -11.942 ], [ 135.054, -11.919 ], [ 135.122, -11.93 ] ] ], [ [ [ 133.36, -11.617 ], [ 133.484, -11.602 ], [ 133.36, -11.66 ], [ 133.36, -11.617 ] ] ], [ [ [ 133.477, -11.455 ], [ 133.511, -11.503 ], [ 133.395, -11.544 ], [ 133.395, -11.489 ], [ 133.477, -11.455 ] ] ], [ [ [ 129.0, -14.868 ], [ 129.184, -14.982 ], [ 129.153, -15.224 ], [ 129.221, -15.17 ], [ 129.214, -15.237 ], [ 129.263, -15.108 ], [ 129.229, -14.837 ], [ 129.477, -14.934 ], [ 129.572, -15.054 ], [ 129.585, -15.17 ], [ 129.662, -15.138 ], [ 129.677, -15.199 ], [ 129.731, -15.186 ], [ 129.612, -14.943 ], [ 129.649, -14.833 ], [ 129.786, -14.862 ], [ 129.982, -14.806 ], [ 129.982, -14.71 ], [ 129.799, -14.817 ], [ 129.797, -14.764 ], [ 129.67, -14.753 ], [ 129.588, -14.613 ], [ 129.718, -14.596 ], [ 129.789, -14.532 ], [ 129.667, -14.575 ], [ 129.535, -14.545 ], [ 129.358, -14.409 ], [ 129.373, -14.329 ], [ 129.493, -14.144 ], [ 129.482, -14.052 ], [ 129.585, -14.093 ], [ 129.606, -13.997 ], [ 129.633, -14.035 ], [ 129.736, -13.992 ], [ 129.716, -13.867 ], [ 129.816, -13.762 ], [ 129.785, -13.676 ], [ 129.891, -13.438 ], [ 129.969, -13.53 ], [ 130.134, -13.461 ], [ 130.254, -13.324 ], [ 130.332, -13.346 ], [ 130.123, -13.165 ], [ 130.13, -12.941 ], [ 130.319, -12.906 ], [ 130.354, -12.672 ], [ 130.516, -12.654 ], [ 130.507, -12.596 ], [ 130.586, -12.709 ], [ 130.693, -12.701 ], [ 130.56, -12.628 ], [ 130.618, -12.604 ], [ 130.578, -12.401 ], [ 130.784, -12.435 ], [ 130.79, -12.585 ], [ 130.811, -12.537 ], [ 130.9, -12.64 ], [ 130.909, -12.598 ], [ 130.969, -12.627 ], [ 130.874, -12.514 ], [ 130.969, -12.537 ], [ 130.825, -12.401 ], [ 130.907, -12.332 ], [ 131.051, -12.373 ], [ 131.026, -12.147 ], [ 131.257, -12.236 ], [ 131.296, -12.044 ], [ 131.347, -12.22 ], [ 131.448, -12.29 ], [ 131.897, -12.216 ], [ 132.058, -12.307 ], [ 132.251, -12.156 ], [ 132.278, -12.228 ], [ 132.38, -12.216 ], [ 132.422, -12.304 ], [ 132.388, -12.38 ], [ 132.449, -12.3 ], [ 132.44, -12.155 ], [ 132.564, -12.092 ], [ 132.679, -12.137 ], [ 132.758, -12.133 ], [ 132.635, -12.067 ], [ 132.652, -11.849 ], [ 132.593, -11.784 ], [ 132.696, -11.653 ], [ 132.579, -11.611 ], [ 132.495, -11.476 ], [ 132.37, -11.435 ], [ 132.106, -11.523 ], [ 132.041, -11.419 ], [ 131.948, -11.394 ], [ 131.976, -11.351 ], [ 131.768, -11.311 ], [ 131.882, -11.172 ], [ 131.94, -11.251 ], [ 131.983, -11.226 ], [ 131.982, -11.13 ], [ 132.115, -11.209 ], [ 132.107, -11.332 ], [ 132.141, -11.303 ], [ 132.175, -11.406 ], [ 132.236, -11.351 ], [ 132.161, -11.124 ], [ 132.285, -11.268 ], [ 132.278, -11.162 ], [ 132.343, -11.122 ], [ 132.378, -11.283 ], [ 132.475, -11.234 ], [ 132.674, -11.508 ], [ 132.833, -11.4 ], [ 132.895, -11.419 ], [ 132.867, -11.338 ], [ 132.911, -11.332 ], [ 133.167, -11.704 ], [ 133.347, -11.688 ], [ 133.324, -11.759 ], [ 133.407, -11.724 ], [ 133.479, -11.791 ], [ 133.532, -11.749 ], [ 133.532, -11.866 ], [ 133.803, -11.715 ], [ 133.916, -11.722 ], [ 133.939, -11.758 ], [ 133.844, -11.855 ], [ 133.943, -11.914 ], [ 134.056, -11.845 ], [ 134.087, -11.928 ], [ 134.138, -11.879 ], [ 134.195, -11.948 ], [ 134.193, -12.079 ], [ 134.285, -11.968 ], [ 134.429, -12.058 ], [ 134.594, -12.064 ], [ 134.769, -11.948 ], [ 134.861, -12.127 ], [ 135.218, -12.301 ], [ 135.17, -12.228 ], [ 135.349, -12.236 ], [ 135.223, -12.191 ], [ 135.325, -12.111 ], [ 135.536, -12.062 ], [ 135.588, -12.099 ], [ 135.712, -12.018 ], [ 135.566, -12.026 ], [ 135.601, -11.957 ], [ 135.739, -11.942 ], [ 135.875, -11.846 ], [ 135.878, -11.756 ], [ 135.937, -11.777 ], [ 135.903, -11.85 ], [ 135.717, -12.003 ], [ 135.916, -11.968 ], [ 135.65, -12.165 ], [ 135.732, -12.311 ], [ 135.88, -12.152 ], [ 135.913, -12.182 ], [ 136.053, -12.064 ], [ 135.935, -12.214 ], [ 135.974, -12.265 ], [ 136.06, -12.232 ], [ 135.985, -12.363 ], [ 136.023, -12.456 ], [ 136.253, -12.441 ], [ 136.368, -12.239 ], [ 136.177, -12.171 ], [ 136.564, -11.892 ], [ 136.47, -11.986 ], [ 136.533, -11.993 ], [ 136.664, -12.264 ], [ 136.745, -12.266 ], [ 136.679, -12.205 ], [ 136.761, -12.164 ], [ 136.876, -12.223 ], [ 136.928, -12.349 ], [ 136.984, -12.345 ], [ 136.771, -12.541 ], [ 136.806, -12.456 ], [ 136.74, -12.476 ], [ 136.761, -12.574 ], [ 136.69, -12.713 ], [ 136.608, -12.715 ], [ 136.611, -12.83 ], [ 136.559, -12.745 ], [ 136.532, -12.804 ], [ 136.472, -12.774 ], [ 136.657, -12.996 ], [ 136.497, -12.975 ], [ 136.567, -13.058 ], [ 136.472, -13.242 ], [ 136.322, -13.308 ], [ 136.388, -13.226 ], [ 136.333, -13.047 ], [ 136.308, -13.163 ], [ 136.249, -13.13 ], [ 136.159, -13.263 ], [ 136.148, -13.122 ], [ 136.053, -13.23 ], [ 136.053, -13.312 ], [ 136.008, -13.216 ], [ 135.911, -13.284 ], [ 135.883, -13.367 ], [ 135.969, -13.426 ], [ 135.855, -13.456 ], [ 135.845, -13.6 ], [ 135.923, -13.675 ], [ 135.887, -13.714 ], [ 135.97, -13.742 ], [ 136.078, -13.663 ], [ 135.923, -13.96 ], [ 135.909, -14.195 ], [ 135.759, -14.265 ], [ 135.523, -14.652 ], [ 135.368, -14.723 ], [ 135.47, -14.948 ], [ 136.225, -15.409 ], [ 136.273, -15.56 ], [ 136.595, -15.711 ], [ 136.723, -15.862 ], [ 136.716, -15.936 ], [ 136.926, -15.935 ], [ 136.992, -15.864 ], [ 137.361, -16.122 ], [ 137.746, -16.252 ], [ 138.0, -16.542 ], [ 138.0, -26.0 ], [ 133.5, -26.0 ], [ 129.0, -26.0 ], [ 129.0, -14.868 ] ] ], [ [ [ 136.67, -15.663 ], [ 136.712, -15.704 ], [ 136.664, -15.779 ], [ 136.616, -15.714 ], [ 136.67, -15.663 ] ] ], [ [ [ 136.732, -15.649 ], [ 136.835, -15.682 ], [ 136.732, -15.744 ], [ 136.732, -15.649 ] ] ], [ [ [ 137.083, -15.652 ], [ 137.073, -15.847 ], [ 136.982, -15.712 ], [ 136.935, -15.721 ], [ 136.995, -15.593 ], [ 137.083, -15.652 ] ] ], [ [ [ 136.616, -15.539 ], [ 136.588, -15.635 ], [ 136.499, -15.628 ], [ 136.525, -15.534 ], [ 136.616, -15.539 ] ] ], [ [ [ 136.883, -15.498 ], [ 136.848, -15.635 ], [ 136.842, -15.553 ], [ 136.883, -15.498 ] ] ], [ [ [ 135.728, -14.835 ], [ 135.763, -14.901 ], [ 135.687, -14.903 ], [ 135.728, -14.835 ] ] ], [ [ [ 136.812, -13.809 ], [ 136.81, -13.808 ], [ 136.818, -13.801 ], [ 136.812, -13.809 ] ] ], [ [ [ 136.287, -13.706 ], [ 136.236, -13.847 ], [ 136.177, -13.764 ], [ 136.157, -13.84 ], [ 136.117, -13.817 ], [ 136.115, -13.724 ], [ 136.165, -13.742 ], [ 136.195, -13.67 ], [ 136.287, -13.706 ] ] ], [ [ [ 136.979, -14.147 ], [ 136.952, -14.278 ], [ 136.903, -14.299 ], [ 136.639, -14.28 ], [ 136.427, -14.195 ], [ 136.324, -14.23 ], [ 136.437, -14.12 ], [ 136.41, -13.819 ], [ 136.595, -13.812 ], [ 136.629, -13.776 ], [ 136.572, -13.686 ], [ 136.621, -13.718 ], [ 136.718, -13.648 ], [ 136.677, -13.744 ], [ 136.732, -13.84 ], [ 136.814, -13.85 ], [ 136.842, -13.75 ], [ 136.903, -13.758 ], [ 136.856, -13.915 ], [ 136.768, -13.945 ], [ 136.811, -14.029 ], [ 136.705, -14.073 ], [ 136.705, -14.127 ], [ 136.736, -14.189 ], [ 136.789, -14.15 ], [ 136.881, -14.209 ], [ 136.979, -14.147 ] ] ], [ [ [ 136.143, -13.56 ], [ 136.095, -13.36 ], [ 136.203, -13.461 ], [ 136.143, -13.56 ] ] ], [ [ [ 136.817, -12.076 ], [ 136.829, -12.132 ], [ 136.821, -12.138 ], [ 136.797, -12.108 ], [ 136.817, -12.076 ] ] ], [ [ [ 132.34, -12.099 ], [ 132.412, -12.084 ], [ 132.406, -12.133 ], [ 132.34, -12.099 ] ] ], [ [ [ 136.29, -11.976 ], [ 136.269, -12.039 ], [ 136.129, -12.058 ], [ 136.129, -12.017 ], [ 136.29, -11.976 ] ] ], [ [ [ 136.483, -11.889 ], [ 136.478, -11.814 ], [ 136.499, -11.798 ], [ 136.483, -11.889 ] ] ], [ [ [ 136.605, -11.746 ], [ 136.582, -11.798 ], [ 136.52, -11.791 ], [ 136.529, -11.777 ], [ 136.605, -11.746 ] ] ], [ [ [ 135.956, -11.707 ], [ 135.981, -11.661 ], [ 136.055, -11.65 ], [ 136.006, -11.709 ], [ 135.956, -11.707 ] ] ], [ [ [ 132.509, -11.65 ], [ 132.641, -11.691 ], [ 132.584, -11.72 ], [ 132.509, -11.65 ] ] ], [ [ [ 136.32, -11.603 ], [ 136.478, -11.461 ], [ 136.376, -11.592 ], [ 136.177, -11.688 ], [ 136.267, -11.573 ], [ 136.32, -11.603 ] ] ], [ [ [ 130.537, -11.705 ], [ 130.628, -11.805 ], [ 130.496, -11.839 ], [ 130.321, -11.77 ], [ 130.084, -11.828 ], [ 130.017, -11.777 ], [ 130.07, -11.756 ], [ 130.072, -11.671 ], [ 130.185, -11.677 ], [ 130.198, -11.507 ], [ 130.147, -11.489 ], [ 130.345, -11.317 ], [ 130.386, -11.52 ], [ 130.462, -11.592 ], [ 130.448, -11.701 ], [ 130.537, -11.705 ] ] ], [ [ [ 131.537, -11.413 ], [ 131.471, -11.493 ], [ 131.474, -11.6 ], [ 131.387, -11.578 ], [ 131.293, -11.724 ], [ 130.961, -11.934 ], [ 130.497, -11.65 ], [ 130.367, -11.204 ], [ 130.4, -11.153 ], [ 130.516, -11.297 ], [ 130.587, -11.287 ], [ 130.566, -11.395 ], [ 130.658, -11.331 ], [ 130.696, -11.434 ], [ 130.921, -11.309 ], [ 131.023, -11.413 ], [ 131.049, -11.315 ], [ 131.153, -11.249 ], [ 131.219, -11.4 ], [ 131.205, -11.247 ], [ 131.274, -11.19 ], [ 131.301, -11.277 ], [ 131.428, -11.25 ], [ 131.475, -11.391 ], [ 131.537, -11.413 ] ] ], [ [ [ 136.764, -11.04 ], [ 136.716, -11.206 ], [ 136.535, -11.443 ], [ 136.478, -11.448 ], [ 136.764, -11.04 ] ] ], [ [ [ 132.599, -11.345 ], [ 132.468, -11.03 ], [ 132.551, -11.032 ], [ 132.599, -10.968 ], [ 132.599, -11.345 ] ] ] ] } },
{ "type": "Feature", "properties": { "state": "SA", "name": "South Australia" }, "geometry": { "type": "MultiPolygon", "coordinates": [ [ [ [ 134.196, -32.496 ], [ 134.053, -32.459 ], [ 133.864, -32.547 ], [ 133.869, -32.433 ], [ 133.95, -32.389 ], [ 133.649, -32.102 ], [ 133.561, -32.172 ], [ 133.419, -32.133 ], [ 133.494, -32.2 ], [ 133.271, -32.219 ], [ 132.977, -32.109 ], [ 132.776, -31.951 ], [ 132.516, -31.941 ], [ 132.472, -32.03 ], [ 132.234, -32.033 ], [ 131.783, -31.728 ], [ 131.178, -31.478 ], [ 130.79, -31.608 ], [ 130.157, -31.574 ], [ 129.0, -31.689 ], [ 129.0, -26.0 ], [ 134.906, -26.0 ], [ 141.0, -26.0 ], [ 140.968, -38.059 ], [ 140.69, -38.068 ], [ 140.398, -37.92 ], [ 140.114, -37.518 ], [ 139.988, -37.487 ], [ 139.742, -37.181 ], [ 139.788, -37.126 ], [ 139.672, -36.953 ], [ 139.815, -36.879 ], [ 139.864, -36.767 ], [ 139.729, -36.372 ], [ 139.457, -35.958 ], [ 138.918, -35.577 ], [ 139.001, -35.585 ], [ 139.448, -35.927 ], [ 139.672, -36.228 ], [ 139.475, -35.896 ], [ 139.041, -35.604 ], [ 139.155, -35.503 ], [ 139.234, -35.548 ], [ 139.23, -35.689 ], [ 139.338, -35.687 ], [ 139.356, -35.593 ], [ 139.219, -35.507 ], [ 139.361, -35.49 ], [ 139.363, -35.377 ], [ 139.178, -35.315 ], [ 138.961, -35.414 ], [ 139.031, -35.518 ], [ 138.794, -35.484 ], [ 138.993, -35.548 ], [ 138.746, -35.539 ], [ 138.531, -35.646 ], [ 138.202, -35.672 ], [ 138.107, -35.621 ], [ 138.139, -35.54 ], [ 138.438, -35.343 ], [ 138.514, -35.038 ], [ 138.494, -34.792 ], [ 138.551, -34.782 ], [ 138.294, -34.505 ], [ 138.078, -34.128 ], [ 137.892, -34.526 ], [ 137.75, -35.131 ], [ 137.671, -35.181 ], [ 137.426, -35.118 ], [ 137.169, -35.242 ], [ 137.04, -35.227 ], [ 136.914, -35.297 ], [ 136.839, -35.256 ], [ 137.02, -34.901 ], [ 137.391, -34.954 ], [ 137.446, -34.917 ], [ 137.513, -34.618 ], [ 137.479, -34.466 ], [ 137.414, -34.472 ], [ 137.484, -34.355 ], [ 137.452, -34.156 ], [ 137.549, -34.087 ], [ 137.602, -33.877 ], [ 137.879, -33.598 ], [ 137.931, -33.616 ], [ 137.81, -33.26 ], [ 137.855, -33.191 ], [ 138.037, -33.14 ], [ 138.04, -33.082 ], [ 137.958, -33.005 ], [ 137.938, -32.753 ], [ 137.849, -32.698 ], [ 137.774, -32.52 ], [ 137.778, -32.983 ], [ 137.632, -32.962 ], [ 137.452, -33.14 ], [ 137.225, -33.653 ], [ 137.02, -33.73 ], [ 136.946, -33.682 ], [ 136.883, -33.755 ], [ 136.965, -33.753 ], [ 136.607, -33.903 ], [ 136.369, -34.073 ], [ 136.232, -34.309 ], [ 136.138, -34.355 ], [ 136.101, -34.535 ], [ 136.069, -34.482 ], [ 135.937, -34.535 ], [ 135.883, -34.768 ], [ 135.799, -34.805 ], [ 136.016, -34.744 ], [ 135.965, -35.008 ], [ 135.783, -34.858 ], [ 135.633, -34.953 ], [ 135.458, -34.732 ], [ 135.32, -34.686 ], [ 135.288, -34.592 ], [ 135.108, -34.596 ], [ 135.21, -34.432 ], [ 135.371, -34.628 ], [ 135.504, -34.612 ], [ 135.438, -34.546 ], [ 135.389, -34.569 ], [ 135.19, -33.893 ], [ 134.841, -33.631 ], [ 134.861, -33.479 ], [ 134.677, -33.233 ], [ 134.731, -33.226 ], [ 134.706, -33.173 ], [ 134.582, -33.146 ], [ 134.628, -33.247 ], [ 134.478, -33.157 ], [ 134.359, -33.154 ], [ 134.334, -33.205 ], [ 134.234, -33.047 ], [ 134.149, -33.028 ], [ 134.21, -33.0 ], [ 134.191, -32.946 ], [ 134.069, -32.929 ], [ 134.133, -32.836 ], [ 134.074, -32.714 ], [ 134.217, -32.726 ], [ 134.214, -32.806 ], [ 134.298, -32.678 ], [ 134.196, -32.496 ] ] ], [ [ [ 138.13, -35.816 ], [ 138.048, -35.919 ], [ 137.822, -35.864 ], [ 137.629, -35.91 ], [ 137.602, -36.026 ], [ 137.459, -36.083 ], [ 137.228, -35.98 ], [ 137.14, -36.042 ], [ 136.716, -36.063 ], [ 136.533, -35.912 ], [ 136.598, -35.758 ], [ 137.335, -35.583 ], [ 137.623, -35.582 ], [ 137.582, -35.645 ], [ 137.648, -35.659 ], [ 137.581, -35.727 ], [ 137.778, -35.74 ], [ 137.813, -35.811 ], [ 137.936, -35.726 ], [ 138.13, -35.816 ] ] ], [ [ [ 136.448, -35.169 ], [ 136.476, -35.145 ], [ 136.499, -35.172 ], [ 136.448, -35.169 ] ] ], [ [ [ 136.127, -34.948 ], [ 136.201, -35.075 ], [ 136.086, -34.948 ], [ 136.127, -34.948 ] ] ], [ [ [ 137.336, -34.515 ], [ 137.374, -34.498 ], [ 137.355, -34.538 ], [ 137.336, -34.515 ] ] ], [ [ [ 134.486, -33.712 ], [ 134.551, -33.734 ], [ 134.479, -33.784 ], [ 134.486, -33.712 ] ] ], [ [ [ 133.566, -32.321 ], [ 133.579, -32.26 ], [ 133.676, -32.239 ], [ 133.62, -32.26 ], [ 133.566, -32.321 ] ] ] ] } },
{ "type": "Feature", "properties": { "state": "QLD", "name": "Queensland" }, "geometry": { "type": "MultiPolygon", "coordinates": [ [ [ [ 138.0, -16.542 ], [ 138.294, -16.746 ], [ 138.657, -16.78 ], [ 139.008, -16.895 ], [ 139.158, -17.033 ], [ 139.153, -17.169 ], [ 139.24, -17.323 ], [ 139.439, -17.376 ], [ 140.0, -17.706 ], [ 140.507, -17.636 ], [ 140.845, -17.441 ], [ 140.947, -17.018 ], [ 141.293, -16.496 ], [ 141.431, -16.062 ], [ 141.378, -15.929 ], [ 141.44, -15.649 ], [ 141.659, -15.094 ], [ 141.522, -14.484 ], [ 141.598, -14.115 ], [ 141.468, -13.865 ], [ 141.527, -13.571 ], [ 141.694, -13.251 ], [ 141.585, -12.977 ], [ 141.737, -12.842 ], [ 141.81, -12.668 ], [ 141.882, -12.718 ], [ 141.939, -12.908 ], [ 141.905, -12.757 ], [ 142.008, -12.715 ], [ 141.823, -12.654 ], [ 141.974, -12.585 ], [ 141.798, -12.58 ], [ 141.694, -12.503 ], [ 141.745, -12.455 ], [ 141.659, -12.448 ], [ 141.7, -12.544 ], [ 141.591, -12.541 ], [ 141.717, -12.233 ], [ 141.81, -12.236 ], [ 141.753, -12.208 ], [ 141.831, -12.006 ], [ 141.913, -11.955 ], [ 141.92, -12.106 ], [ 141.964, -12.038 ], [ 142.033, -12.041 ], [ 141.948, -11.896 ], [ 142.132, -11.338 ], [ 142.151, -10.951 ], [ 142.323, -10.902 ], [ 142.449, -10.715 ], [ 142.55, -10.69 ], [ 142.616, -10.752 ], [ 142.515, -10.852 ], [ 142.502, -10.948 ], [ 142.591, -10.865 ], [ 142.666, -11.003 ], [ 142.742, -10.975 ], [ 142.872, -11.383 ], [ 142.821, -11.478 ], [ 142.862, -11.837 ], [ 142.992, -11.934 ], [ 143.104, -11.902 ], [ 143.249, -11.968 ], [ 143.086, -12.149 ], [ 143.077, -12.329 ], [ 143.253, -12.389 ], [ 143.295, -12.535 ], [ 143.434, -12.613 ], [ 143.359, -12.881 ], [ 143.544, -12.833 ], [ 143.503, -13.075 ], [ 143.598, -13.524 ], [ 143.53, -13.75 ], [ 143.687, -14.014 ], [ 143.783, -14.402 ], [ 143.941, -14.511 ], [ 144.162, -14.373 ], [ 144.201, -14.25 ], [ 144.304, -14.313 ], [ 144.44, -14.25 ], [ 144.486, -14.162 ], [ 144.585, -14.265 ], [ 144.58, -14.364 ], [ 144.633, -14.34 ], [ 144.616, -14.468 ], [ 144.678, -14.556 ], [ 144.901, -14.614 ], [ 145.031, -14.806 ], [ 145.223, -14.833 ], [ 145.277, -14.947 ], [ 145.346, -14.943 ], [ 145.236, -15.166 ], [ 145.269, -15.249 ], [ 145.349, -15.25 ], [ 145.244, -15.428 ], [ 145.366, -15.749 ], [ 145.356, -15.903 ], [ 145.462, -16.06 ], [ 145.469, -16.261 ], [ 145.4, -16.443 ], [ 145.723, -16.8 ], [ 145.774, -16.988 ], [ 145.839, -16.882 ], [ 145.955, -16.873 ], [ 145.882, -17.06 ], [ 146.148, -17.633 ], [ 146.01, -18.237 ], [ 146.183, -18.38 ], [ 146.209, -18.513 ], [ 146.339, -18.527 ], [ 146.271, -18.852 ], [ 146.333, -18.959 ], [ 146.905, -19.305 ], [ 147.01, -19.253 ], [ 147.024, -19.177 ], [ 147.134, -19.411 ], [ 147.421, -19.413 ], [ 147.402, -19.304 ], [ 147.559, -19.538 ], [ 147.565, -19.705 ], [ 147.684, -19.828 ], [ 147.785, -19.835 ], [ 147.751, -19.692 ], [ 147.824, -19.714 ], [ 147.929, -19.898 ], [ 148.072, -19.877 ], [ 148.279, -19.966 ], [ 148.265, -20.083 ], [ 148.402, -20.199 ], [ 148.464, -20.185 ], [ 148.444, -20.062 ], [ 148.56, -20.053 ], [ 148.611, -20.214 ], [ 148.648, -20.165 ], [ 148.683, -20.274 ], [ 148.782, -20.241 ], [ 148.937, -20.535 ], [ 148.868, -20.528 ], [ 148.808, -20.433 ], [ 148.758, -20.473 ], [ 148.701, -20.439 ], [ 148.724, -20.501 ], [ 148.66, -20.572 ], [ 148.74, -20.719 ], [ 148.844, -20.778 ], [ 148.827, -20.891 ], [ 148.875, -20.843 ], [ 149.056, -20.899 ], [ 149.027, -20.976 ], [ 149.151, -20.996 ], [ 149.231, -21.09 ], [ 149.197, -21.22 ], [ 149.293, -21.282 ], [ 149.286, -21.398 ], [ 149.341, -21.424 ], [ 149.292, -21.511 ], [ 149.395, -21.504 ], [ 149.429, -21.584 ], [ 149.487, -21.536 ], [ 149.435, -21.79 ], [ 149.588, -22.282 ], [ 149.697, -22.344 ], [ 149.663, -22.494 ], [ 149.813, -22.378 ], [ 150.047, -22.645 ], [ 149.924, -22.298 ], [ 150.054, -22.142 ], [ 150.194, -22.379 ], [ 150.609, -22.611 ], [ 150.544, -22.367 ], [ 150.618, -22.334 ], [ 150.664, -22.419 ], [ 150.678, -22.358 ], [ 150.76, -22.47 ], [ 150.676, -22.507 ], [ 150.678, -22.563 ], [ 150.732, -22.628 ], [ 150.773, -22.53 ], [ 150.826, -22.698 ], [ 150.787, -22.926 ], [ 150.737, -22.933 ], [ 150.764, -23.159 ], [ 150.839, -23.249 ], [ 150.787, -23.309 ], [ 150.882, -23.489 ], [ 150.814, -23.509 ], [ 150.886, -23.572 ], [ 151.011, -23.567 ], [ 151.187, -23.804 ], [ 151.278, -23.824 ], [ 151.441, -24.006 ], [ 151.537, -24.022 ], [ 151.551, -24.091 ], [ 151.582, -24.044 ], [ 151.692, -24.098 ], [ 151.641, -23.978 ], [ 151.733, -24.016 ], [ 151.721, -24.059 ], [ 151.78, -24.023 ], [ 152.123, -24.592 ], [ 152.47, -24.806 ], [ 152.506, -24.999 ], [ 152.632, -25.143 ], [ 152.568, -25.179 ], [ 152.914, -25.288 ], [ 152.932, -25.417 ], [ 152.87, -25.476 ], [ 152.962, -25.437 ], [ 152.966, -25.497 ], [ 152.884, -25.674 ], [ 153.021, -25.825 ], [ 153.021, -25.969 ], [ 153.062, -25.818 ], [ 153.122, -25.934 ], [ 153.206, -25.935 ], [ 153.074, -26.317 ], [ 153.137, -26.393 ], [ 153.11, -26.647 ], [ 153.21, -27.077 ], [ 153.082, -27.11 ], [ 153.038, -27.193 ], [ 153.117, -27.197 ], [ 153.065, -27.31 ], [ 153.168, -27.364 ], [ 153.402, -27.809 ], [ 153.446, -27.791 ], [ 153.4, -27.954 ], [ 153.507, -28.149 ], [ 153.354, -28.25 ], [ 153.192, -28.26 ], [ 153.107, -28.354 ], [ 152.751, -28.358 ], [ 152.617, -28.293 ], [ 152.564, -28.333 ], [ 152.487, -28.263 ], [ 152.387, -28.366 ], [ 151.964, -28.54 ], [ 152.067, -28.703 ], [ 152.014, -28.899 ], [ 151.859, -28.916 ], [ 151.824, -28.974 ], [ 151.725, -28.887 ], [ 151.564, -28.951 ], [ 151.376, -29.171 ], [ 151.287, -28.921 ], [ 151.062, -28.828 ], [ 151.046, -28.735 ], [ 150.794, -28.635 ], [ 150.45, -28.646 ], [ 150.298, -28.535 ], [ 149.704, -28.627 ], [ 149.595, -28.565 ], [ 149.484, -28.584 ], [ 149.416, -28.681 ], [ 149.094, -28.848 ], [ 148.971, -29.0 ], [ 144.886, -29.0 ], [ 141.0, -29.0 ], [ 141.0, -26.0 ], [ 138.0, -26.0 ], [ 138.0, -16.542 ] ] ], [ [ [ 153.434, -27.393 ], [ 153.549, -27.415 ], [ 153.456, -27.721 ], [ 153.403, -27.726 ], [ 153.398, -27.493 ], [ 153.434, -27.393 ] ] ], [ [ [ 153.429, -27.354 ], [ 153.361, -27.066 ], [ 153.451, -27.017 ], [ 153.429, -27.354 ] ] ], [ [ [ 152.954, -25.278 ], [ 153.006, -25.328 ], [ 152.994, -25.338 ], [ 152.954, -25.278 ] ] ], [ [ [ 153.37, -24.989 ], [ 153.084, -25.666 ], [ 153.1, -25.758 ], [ 153.055, -25.797 ], [ 152.946, -25.583 ], [ 153.069, -25.329 ], [ 153.014, -25.212 ], [ 153.226, -25.028 ], [ 153.24, -24.913 ], [ 153.137, -24.817 ], [ 153.281, -24.694 ], [ 153.285, -24.877 ], [ 153.37, -24.989 ] ] ], [ [ [ 151.333, -23.75 ], [ 151.383, -23.88 ], [ 151.329, -23.803 ], [ 151.333, -23.75 ] ] ], [ [ [ 151.239, -23.489 ], [ 151.298, -23.748 ], [ 151.214, -23.778 ], [ 150.98, -23.487 ], [ 151.071, -23.447 ], [ 151.195, -23.534 ], [ 151.239, -23.489 ] ] ], [ [ [ 149.71, -22.385 ], [ 149.766, -22.365 ], [ 149.725, -22.44 ], [ 149.71, -22.385 ] ] ], [ [ [ 150.478, -22.216 ], [ 150.556, -22.306 ], [ 150.482, -22.345 ], [ 150.478, -22.216 ] ] ], [ [ [ 149.917, -22.042 ], [ 149.928, -22.16 ], [ 149.889, -22.227 ], [ 149.869, -22.142 ], [ 149.917, -22.042 ] ] ], [ [ [ 150.293, -21.741 ], [ 150.341, -21.741 ], [ 150.369, -21.727 ], [ 150.343, -21.772 ], [ 150.293, -21.741 ] ] ], [ [ [ 150.305, -21.66 ], [ 150.246, -21.679 ], [ 150.246, -21.624 ], [ 150.305, -21.66 ] ] ], [ [ [ 149.094, -20.418 ], [ 149.115, -20.48 ], [ 149.053, -20.528 ], [ 149.039, -20.501 ], [ 149.094, -20.418 ] ] ], [ [ [ 149.067, -20.315 ], [ 148.927, -20.287 ], [ 148.985, -20.151 ], [ 149.004, -20.229 ], [ 149.067, -20.315 ] ] ], [ [ [ 148.964, -20.042 ], [ 148.923, -20.179 ], [ 148.882, -20.138 ], [ 148.964, -20.042 ] ] ], [ [ [ 148.45, -19.966 ], [ 148.481, -20.005 ], [ 148.47, -20.048 ], [ 148.45, -20.042 ], [ 148.45, -19.966 ] ] ], [ [ [ 146.833, -19.102 ], [ 146.82, -19.175 ], [ 146.78, -19.132 ], [ 146.833, -19.102 ] ] ], [ [ [ 146.302, -18.237 ], [ 146.311, -18.479 ], [ 146.223, -18.466 ], [ 146.199, -18.375 ], [ 146.097, -18.245 ], [ 146.217, -18.278 ], [ 146.23, -18.198 ], [ 146.302, -18.237 ] ] ], [ [ [ 139.494, -16.985 ], [ 139.569, -17.1 ], [ 139.425, -17.143 ], [ 139.494, -16.985 ] ] ], [ [ [ 139.108, -16.862 ], [ 139.133, -16.813 ], [ 139.158, -16.828 ], [ 139.108, -16.862 ] ] ], [ [ [ 139.734, -16.443 ], [ 139.708, -16.526 ], [ 139.611, -16.553 ], [ 139.553, -16.483 ], [ 139.487, -16.518 ], [ 139.525, -16.557 ], [ 139.474, -16.557 ], [ 139.445, -16.665 ], [ 139.398, -16.642 ], [ 139.302, -16.725 ], [ 139.178, -16.662 ], [ 139.145, -16.756 ], [ 139.164, -16.616 ], [ 139.288, -16.471 ], [ 139.583, -16.396 ], [ 139.734, -16.443 ] ] ], [ [ [ 142.193, -10.591 ], [ 142.283, -10.715 ], [ 142.187, -10.77 ], [ 142.112, -10.684 ], [ 142.193, -10.591 ] ] ], [ [ [ 142.274, -10.641 ], [ 142.294, -10.573 ], [ 142.325, -10.612 ], [ 142.274, -10.641 ] ] ], [ [ [ 142.293, -10.139 ], [ 142.334, -10.2 ], [ 142.29, -10.26 ], [ 142.221, -10.242 ], [ 142.214, -10.153 ], [ 142.293, -10.139 ] ] ], [ [ [ 142.142, -10.05 ], [ 142.19, -10.144 ], [ 142.143, -10.186 ], [ 142.097, -10.119 ], [ 142.142, -10.05 ] ] ], [ [ [ 146.651, -18.746 ], [ 146.57, -18.761 ], [ 146.581, -18.682 ], [ 146.611, -18.703 ], [ 146.651, -18.746 ] ] ], [ [ [ 142.755, -9.37 ], [ 142.714, -9.429 ], [ 142.601, -9.4 ], [ 142.637, -9.374 ], [ 142.755, -9.37 ] ] ], [ [ [ 142.151, -9.271 ], [ 142.28, -9.262 ], [ 142.284, -9.278 ], [ 142.151, -9.271 ] ] ] ] } },
{ "type": "Feature", "properties": { "state": "NSW", "name": "New South Wales" }, "geometry": { "type": "Polygon", "coordinates": [ [ [ 153.507, -28.149 ], [ 153.591, -28.268 ], [ 153.606, -28.867 ], [ 153.476, -29.0 ], [ 153.351, -29.281 ], [ 153.295, -29.827 ], [ 152.988, -30.735 ], [ 153.088, -30.927 ], [ 152.935, -31.483 ], [ 152.747, -31.843 ], [ 152.546, -32.044 ], [ 152.54, -32.442 ], [ 152.295, -32.56 ], [ 152.192, -32.653 ], [ 152.219, -32.697 ], [ 152.061, -32.698 ], [ 152.19, -32.725 ], [ 152.185, -32.767 ], [ 151.799, -32.894 ], [ 151.569, -33.292 ], [ 151.515, -33.327 ], [ 151.516, -33.261 ], [ 151.454, -33.304 ], [ 151.504, -33.36 ], [ 151.424, -33.528 ], [ 151.231, -33.535 ], [ 151.226, -33.609 ], [ 151.299, -33.571 ], [ 151.295, -33.649 ], [ 151.341, -33.617 ], [ 151.247, -33.856 ], [ 151.281, -33.952 ], [ 151.249, -34.004 ], [ 151.202, -33.959 ], [ 151.095, -34.014 ], [ 151.231, -34.04 ], [ 150.969, -34.263 ], [ 150.919, -34.486 ], [ 150.801, -34.548 ], [ 150.917, -34.603 ], [ 150.727, -34.874 ], [ 150.845, -35.077 ], [ 150.807, -35.111 ], [ 150.787, -35.015 ], [ 150.696, -35.026 ], [ 150.704, -35.12 ], [ 150.5, -35.29 ], [ 150.292, -35.723 ], [ 150.191, -35.727 ], [ 150.239, -35.833 ], [ 150.15, -35.898 ], [ 150.149, -36.063 ], [ 150.107, -36.049 ], [ 150.082, -36.084 ], [ 150.143, -36.114 ], [ 150.142, -36.32 ], [ 149.93, -36.83 ], [ 149.942, -37.062 ], [ 149.876, -37.096 ], [ 149.998, -37.15 ], [ 150.054, -37.269 ], [ 149.951, -37.284 ], [ 149.972, -37.51 ], [ 148.123, -36.788 ], [ 148.215, -36.617 ], [ 148.068, -36.41 ], [ 147.997, -36.059 ], [ 147.91, -36.005 ], [ 147.714, -35.939 ], [ 147.557, -35.996 ], [ 147.484, -35.946 ], [ 147.382, -35.98 ], [ 147.34, -36.076 ], [ 147.135, -36.039 ], [ 147.094, -36.168 ], [ 147.196, -36.22 ], [ 147.107, -36.241 ], [ 147.045, -36.108 ], [ 146.847, -36.097 ], [ 146.624, -35.994 ], [ 146.442, -35.979 ], [ 146.385, -36.047 ], [ 146.216, -36.056 ], [ 145.94, -35.967 ], [ 145.787, -35.98 ], [ 145.494, -35.829 ], [ 145.008, -35.868 ], [ 144.934, -36.006 ], [ 144.975, -36.097 ], [ 144.741, -36.135 ], [ 144.453, -35.947 ], [ 144.353, -35.778 ], [ 144.1, -35.587 ], [ 143.586, -35.353 ], [ 143.581, -35.249 ], [ 143.364, -35.107 ], [ 143.328, -34.784 ], [ 143.143, -34.699 ], [ 142.88, -34.679 ], [ 142.79, -34.582 ], [ 142.643, -34.788 ], [ 142.548, -34.771 ], [ 142.386, -34.533 ], [ 142.396, -34.338 ], [ 142.051, -34.116 ], [ 141.706, -34.11 ], [ 141.546, -34.219 ], [ 141.0, -34.019 ], [ 141.0, -29.0 ], [ 144.886, -29.0 ], [ 148.971, -29.0 ], [ 149.094, -28.848 ], [ 149.416, -28.681 ], [ 149.484, -28.584 ], [ 149.595, -28.565 ], [ 149.704, -28.627 ], [ 150.298, -28.535 ], [ 150.45, -28.646 ], [ 150.794, -28.635 ], [ 151.046, -28.735 ], [ 151.062, -28.828 ], [ 151.287, -28.921 ], [ 151.376, -29.171 ], [ 151.564, -28.951 ], [ 151.725, -28.887 ], [ 151.824, -28.974 ], [ 151.859, -28.916 ], [ 152.014, -28.899 ], [ 152.067, -28.703 ], [ 151.964, -28.54 ], [ 152.387, -28.366 ], [ 152.487, -28.263 ], [ 152.564, -28.333 ], [ 152.617, -28.293 ], [ 152.751, -28.358 ], [ 153.107, -28.354 ], [ 153.192, -28.26 ], [ 153.354, -28.25 ], [ 153.507, -28.149 ] ], [ [ 149.146, -35.43 ], [ 149.403, -35.324 ], [ 149.127, -35.14 ], [ 148.809, -35.331 ], [ 148.773, -35.651 ], [ 148.832, -35.744 ], [ 148.888, -35.733 ], [ 148.948, -35.888 ], [ 149.042, -35.92 ], [ 149.1, -35.857 ], [ 149.146, -35.43 ] ] ] } },
{ "type": "Feature", "properties": { "state": "VIC", "name": "Victoria" }, "geometry": { "type": "MultiPolygon", "coordinates": [ [ [ [ 149.972, -37.51 ], [ 149.779, -37.556 ], [ 149.794, -37.511 ], [ 149.718, -37.516 ], [ 149.766, -37.584 ], [ 149.678, -37.691 ], [ 149.491, -37.783 ], [ 148.306, -37.823 ], [ 147.758, -37.985 ], [ 146.848, -38.685 ], [ 146.224, -38.714 ], [ 146.182, -38.756 ], [ 146.286, -38.91 ], [ 146.477, -38.81 ], [ 146.435, -39.02 ], [ 146.483, -39.065 ], [ 146.394, -39.145 ], [ 146.182, -38.868 ], [ 146.092, -38.82 ], [ 145.921, -38.907 ], [ 145.757, -38.66 ], [ 145.854, -38.701 ], [ 145.809, -38.65 ], [ 145.6, -38.68 ], [ 145.514, -38.578 ], [ 145.373, -38.537 ], [ 145.421, -38.427 ], [ 145.557, -38.385 ], [ 145.464, -38.235 ], [ 145.256, -38.241 ], [ 145.229, -38.413 ], [ 145.113, -38.406 ], [ 144.945, -38.51 ], [ 144.677, -38.333 ], [ 144.804, -38.379 ], [ 144.983, -38.341 ], [ 145.119, -38.159 ], [ 145.11, -38.052 ], [ 144.935, -37.868 ], [ 144.517, -38.112 ], [ 144.373, -38.118 ], [ 144.524, -38.178 ], [ 144.705, -38.146 ], [ 144.653, -38.286 ], [ 144.402, -38.301 ], [ 143.537, -38.858 ], [ 142.81, -38.578 ], [ 142.502, -38.374 ], [ 142.175, -38.399 ], [ 141.947, -38.283 ], [ 141.762, -38.262 ], [ 141.632, -38.309 ], [ 141.654, -38.4 ], [ 141.558, -38.44 ], [ 141.483, -38.376 ], [ 141.395, -38.402 ], [ 141.375, -38.291 ], [ 140.968, -38.059 ], [ 140.967, -33.986 ], [ 141.046, -34.062 ], [ 141.242, -34.076 ], [ 141.546, -34.219 ], [ 141.749, -34.103 ], [ 142.051, -34.116 ], [ 142.235, -34.192 ], [ 142.305, -34.317 ], [ 142.396, -34.338 ], [ 142.386, -34.533 ], [ 142.557, -34.774 ], [ 142.643, -34.788 ], [ 142.79, -34.582 ], [ 142.88, -34.679 ], [ 143.143, -34.699 ], [ 143.328, -34.784 ], [ 143.364, -35.107 ], [ 143.581, -35.249 ], [ 143.586, -35.353 ], [ 144.1, -35.587 ], [ 144.353, -35.778 ], [ 144.453, -35.947 ], [ 144.741, -36.135 ], [ 144.975, -36.097 ], [ 144.934, -36.006 ], [ 145.008, -35.868 ], [ 145.494, -35.829 ], [ 145.787, -35.98 ], [ 145.94, -35.967 ], [ 146.216, -36.056 ], [ 146.385, -36.047 ], [ 146.442, -35.979 ], [ 146.624, -35.994 ], [ 146.847, -36.097 ], [ 147.045, -36.108 ], [ 147.107, -36.241 ], [ 147.196, -36.22 ], [ 147.094, -36.168 ], [ 147.135, -36.039 ], [ 147.34, -36.076 ], [ 147.382, -35.98 ], [ 147.484, -35.946 ], [ 147.557, -35.996 ], [ 147.714, -35.939 ], [ 147.91, -36.005 ], [ 147.997, -36.059 ], [ 148.068, -36.41 ], [ 148.215, -36.617 ], [ 148.123, -36.788 ], [ 149.972, -37.51 ] ] ], [ [ [ 146.602, -38.747 ], [ 146.539, -38.797 ], [ 146.471, -38.747 ], [ 146.602, -38.747 ] ] ], [ [ [ 145.279, -38.452 ], [ 145.361, -38.549 ], [ 145.353, -38.571 ], [ 145.113, -38.531 ], [ 145.279, -38.452 ] ] ], [ [ [ 145.298, -38.297 ], [ 145.489, -38.369 ], [ 145.353, -38.428 ], [ 145.284, -38.403 ], [ 145.298, -38.297 ] ] ] ] } },
{ "type": "Feature", "properties": { "state": "TAS", "name": "Tasmania" }, "geometry": { "type": "MultiPolygon", "coordinates": [ [ [ [ 147.999, -43.23 ], [ 147.883, -43.132 ], [ 147.792, -43.244 ], [ 147.7, -43.163 ], [ 147.748, -43.106 ], [ 147.627, -43.043 ], [ 147.693, -42.936 ], [ 147.763, -43.038 ], [ 147.887, -43.034 ], [ 147.84, -42.902 ], [ 147.534, -42.837 ], [ 147.559, -42.977 ], [ 147.436, -43.046 ], [ 147.477, -42.909 ], [ 147.422, -42.927 ], [ 147.284, -42.778 ], [ 147.36, -42.925 ], [ 147.333, -43.043 ], [ 147.254, -43.027 ], [ 147.258, -43.254 ], [ 147.164, -43.27 ], [ 147.092, -43.232 ], [ 147.107, -43.155 ], [ 147.061, -43.202 ], [ 147.018, -43.112 ], [ 146.973, -43.131 ], [ 146.966, -43.199 ], [ 147.1, -43.299 ], [ 146.963, -43.34 ], [ 147.055, -43.356 ], [ 146.922, -43.43 ], [ 147.018, -43.478 ], [ 146.902, -43.532 ], [ 146.927, -43.612 ], [ 146.711, -43.629 ], [ 146.555, -43.469 ], [ 146.514, -43.534 ], [ 146.238, -43.485 ], [ 146.024, -43.553 ], [ 145.943, -43.365 ], [ 146.086, -43.354 ], [ 146.161, -43.416 ], [ 146.23, -43.32 ], [ 146.168, -43.278 ], [ 146.025, -43.325 ], [ 145.917, -43.196 ], [ 145.869, -43.273 ], [ 145.926, -43.289 ], [ 145.832, -43.293 ], [ 145.73, -43.1 ], [ 145.51, -42.958 ], [ 145.353, -42.651 ], [ 145.265, -42.604 ], [ 145.189, -42.196 ], [ 145.435, -42.379 ], [ 145.472, -42.513 ], [ 145.558, -42.342 ], [ 145.463, -42.327 ], [ 145.346, -42.147 ], [ 145.27, -42.224 ], [ 145.229, -42.196 ], [ 145.207, -41.967 ], [ 144.92, -41.703 ], [ 144.75, -41.414 ], [ 144.606, -40.997 ], [ 144.704, -40.871 ], [ 144.721, -40.64 ], [ 144.766, -40.726 ], [ 144.985, -40.745 ], [ 145.119, -40.821 ], [ 145.25, -40.792 ], [ 145.269, -40.72 ], [ 145.342, -40.844 ], [ 145.524, -40.846 ], [ 145.81, -41.027 ], [ 146.354, -41.168 ], [ 146.546, -41.133 ], [ 146.586, -41.18 ], [ 146.744, -41.066 ], [ 146.808, -41.157 ], [ 146.937, -41.165 ], [ 146.824, -41.1 ], [ 146.838, -41.04 ], [ 147.024, -40.976 ], [ 147.171, -41.007 ], [ 147.286, -40.941 ], [ 147.445, -41.008 ], [ 147.651, -40.829 ], [ 147.886, -40.874 ], [ 147.984, -40.737 ], [ 148.209, -40.841 ], [ 148.331, -41.002 ], [ 148.272, -41.045 ], [ 148.322, -41.268 ], [ 148.258, -41.347 ], [ 148.354, -41.291 ], [ 148.261, -41.8 ], [ 148.364, -42.204 ], [ 148.322, -42.278 ], [ 148.258, -42.244 ], [ 148.32, -42.119 ], [ 148.162, -42.059 ], [ 148.242, -42.007 ], [ 148.181, -41.947 ], [ 148.131, -42.062 ], [ 148.217, -42.093 ], [ 148.093, -42.1 ], [ 147.964, -42.34 ], [ 148.031, -42.332 ], [ 148.006, -42.514 ], [ 147.889, -42.545 ], [ 147.953, -42.72 ], [ 147.845, -42.866 ], [ 147.915, -42.888 ], [ 147.921, -42.838 ], [ 148.005, -42.909 ], [ 147.95, -43.073 ], [ 147.999, -43.23 ] ] ], [ [ [ 147.304, -43.262 ], [ 147.316, -43.501 ], [ 147.216, -43.415 ], [ 147.149, -43.501 ], [ 147.091, -43.411 ], [ 147.172, -43.459 ], [ 147.174, -43.36 ], [ 147.226, -43.386 ], [ 147.304, -43.262 ] ] ], [ [ [ 147.36, -43.075 ], [ 147.438, -43.239 ], [ 147.361, -43.258 ], [ 147.388, -43.196 ], [ 147.292, -43.153 ], [ 147.36, -43.075 ] ] ], [ [ [ 148.025, -42.613 ], [ 148.176, -42.648 ], [ 148.012, -42.751 ], [ 148.025, -42.613 ] ] ], [ [ [ 148.231, -42.299 ], [ 148.317, -42.314 ], [ 148.341, -42.354 ], [ 148.231, -42.299 ] ] ], [ [ [ 144.931, -40.615 ], [ 145.065, -40.709 ], [ 144.873, -40.716 ], [ 144.931, -40.615 ] ] ], [ [ [ 148.194, -40.596 ], [ 148.131, -40.514 ], [ 148.251, -40.489 ], [ 148.194, -40.596 ] ] ], [ [ [ 144.791, -40.421 ], [ 144.791, -40.502 ], [ 144.742, -40.592 ], [ 144.708, -40.489 ], [ 144.791, -40.421 ] ] ], [ [ [ 144.953, -40.449 ], [ 144.831, -40.428 ], [ 144.92, -40.381 ], [ 144.953, -40.449 ] ] ], [ [ [ 148.323, -40.304 ], [ 148.485, -40.428 ], [ 148.341, -40.504 ], [ 148.327, -40.436 ], [ 147.999, -40.418 ], [ 148.074, -40.351 ], [ 148.323, -40.304 ] ] ], [ [ [ 148.124, -40.271 ], [ 147.885, -40.031 ], [ 147.881, -39.895 ], [ 147.758, -39.879 ], [ 147.953, -39.712 ], [ 148.167, -39.936 ], [ 148.299, -39.962 ], [ 148.224, -40.126 ], [ 148.299, -40.099 ], [ 148.327, -40.223 ], [ 148.214, -40.204 ], [ 148.124, -40.271 ] ] ], [ [ [ 144.109, -39.666 ], [ 144.112, -40.031 ], [ 143.903, -40.126 ], [ 143.837, -39.919 ], [ 143.945, -39.579 ], [ 144.109, -39.666 ] ] ] ] } },
{ "type": "Feature", "properties": { "state": "ACT", "name": "Australian Capital Territory" }, "geometry": { "type": "Polygon", "coordinates": [ [ [ 149.127, -35.14 ], [ 149.404, -35.33 ], [ 149.143, -35.435 ], [ 149.105, -35.84 ], [ 149.036, -35.919 ], [ 148.923, -35.868 ], [ 148.883, -35.728 ], [ 148.796, -35.713 ], [ 148.771, -35.493 ], [ 148.818, -35.32 ], [ 149.127, -35.14 ] ] ] } }
]
}
